OSCAR 7 (AO-7)          
1 07530U 74089B   22117.51776668 -.00000032  00000+0  85936-4 0  9992
2 07530 101.9015  97.2337 0012440 138.1108 332.8118 12.53654455171081
PHASE 3B (AO-10)        
1 14129U 83058B   22115.33233478 -.00000271  00000+0  00000+0 0  9994
2 14129  26.4142 104.9198 5990159  67.9091 343.6335  2.05869720264312
UOSAT 2 (UO-11)         
1 14781U 84021B   22117.46396420  .00001101  00000+0  13959-3 0  9995
2 14781  97.6157 107.2322 0009725 123.4450 236.7696 14.83575502 53486
LUSAT (LO-19)           
1 20442U 90005G   22117.48098536  .00000155  00000+0  73265-4 0  9999
2 20442  98.7895  81.5770 0011065 323.3077  36.7348 14.33046085685864
EYESAT A (AO-27)        
1 22825U 93061C   22118.07236401  .00000126  00000+0  66681-4 0  9994
2 22825  98.8919 148.0326 0008229 191.1618 168.9383 14.30161530491227
ITAMSAT (IO-26)         
1 22826U 93061D   22117.33832181  .00000118  00000+0  63002-4 0  9995
2 22826  98.8864 147.1654 0008947 180.3866 179.7310 14.30505120491107
RADIO ROSTO (RS-15)     
1 23439U 94085A   22117.57747644 -.00000037  00000+0  15882-3 0  9991
2 23439  64.8115 227.8982 0167440 281.2841  76.9308 11.27571454125754
JAS-2 (FO-29)           
1 24278U 96046B   22117.56116570  .00000010  00000+0  43434-4 0  9994
2 24278  98.5215 148.2362 0351191  55.4649 307.9119 13.53113570268728
TECHSAT 1B (GO-32)      
1 25397U 98043D   22118.11073441  .00000090  00000+0  59180-4 0  9990
2 25397  98.8137  68.4577 0000335 202.0496 158.0667 14.23746766236487
ISS (ZARYA)             
1 25544U 98067A   22118.35856524  .00015398  00000+0  27935-3 0  9996
2 25544  51.6436 223.3665 0006329  45.3831  60.8736 15.49771140337459
PCSAT (NO-44)           
1 26931U 01043C   22117.55987025  .00000119  00000+0  77044-4 0  9999
2 26931  67.0511 189.7607 0007933 270.8178  89.2014 14.30688178 74120
SAUDISAT 1C (SO-50)     
1 27607U 02058C   22117.44109765  .00001267  00000+0  19554-3 0  9998
2 27607  64.5538  97.9953 0075449 304.4948  54.9044 14.76034839 40845
CUTE-1 (CO-55)          
1 27844U 03031E   22117.49922446  .00000313  00000+0  15999-3 0  9997
2 27844  98.6804 125.9524 0008706 246.8790 113.1470 14.22422111976668
CUBESAT XI-IV (CO-57)   
1 27848U 03031J   22117.79822829  .00000315  00000+0  16237-3 0  9996
2 27848  98.6851 126.7765 0008535 261.7118  98.3092 14.21983554976510
MOZHAYETS 4 (RS-22)     
1 27939U 03042A   22117.93559321  .00001087  00000+0  20136-3 0  9999
2 27939  98.1834 258.6937 0012964  13.7820 346.3713 14.67270410993637
CUBESAT XI-V            
1 28895U 05043F   22117.81564991  .00001467  00000+0  28707-3 0  9994
2 28895  98.0982 250.0004 0015471 302.8616  57.1097 14.64235424880230
FALCONSAT-3             
1 30776U 07006E   22117.75356637  .00051731  00000+0  89922-3 0  9990
2 30776  35.4314 231.5313 0000368 334.9880  25.0833 15.49724410841703
CUTE-1.7+APD II (CO-65) 
1 32785U 08021C   22118.18087408  .00003523  00000+0  37610-3 0  9998
2 32785  97.6528  90.6419 0013931  46.1120 314.1245 14.89367940759073
DELFI-C3 (DO-64)        
1 32789U 08021G   22118.02658933  .00022408  00000+0  12880-2 0  9996
2 32789  97.3438 146.1841 0012638 134.5787 225.6478 15.12426462764403
SEEDS II (CO-66)        
1 32791U 08021J   22117.49091713  .00004680  00000+0  46234-3 0  9999
2 32791  97.6080  95.5263 0012986   9.0568 351.0883 14.92341284759599
YUBILEINY (RS-30)       
1 32953U 08025A   22118.07708663  .00000021  00000+0  80971-4 0  9999
2 32953  82.5064 215.2485 0019218  14.1681 345.9936 12.43109157632078
KKS-1 (KISEKI)          
1 33499U 09002H   22117.80479426  .00001123  00000+0  17101-3 0  9991
2 33499  98.2251 358.9945 0010231 113.5440 246.6845 14.75926206713205
SWISSCUBE               
1 35932U 09051B   22118.03194551  .00000982  00000+0  23031-3 0  9999
2 35932  98.5752 332.5485 0007079 194.0343 166.0658 14.56786792668790
BEESAT-1                
1 35933U 09051C   22118.05639966  .00000846  00000+0  19987-3 0  9990
2 35933  98.5695 334.2365 0005061 204.5253 155.5705 14.56813011668914
ITUPSAT1                
1 35935U 09051E   22117.83693318  .00000771  00000+0  18659-3 0  9990
2 35935  98.5798 334.0798 0007285 211.6899 148.3860 14.55927557668544
XIWANG-1 (HOPE-1)       
1 36122U 09072B   22117.34897181 -.00000008  00000+0  90394-4 0  9993
2 36122 100.1789  90.5951 0008184  98.0170 262.1872 13.16368073594089
JUGNU                   
1 37839U 11058B   22118.19548888  .00000509  00000+0  12909-3 0  9997
2 37839  19.9603 120.2972 0018752 323.2210 118.5701 14.12771788545136
SRMSAT                  
1 37841U 11058D   22117.56110038  .00000401  00000+0  75423-4 0  9994
2 37841  19.9708 202.5414 0011898 144.0609 341.4330 14.10743251544041
M-CUBED & EXP-1 PRIME   
1 37855U 11061F   22117.53901469  .00015489  00000+0  69533-3 0  9992
2 37855 101.7039 209.7857 0157966 214.8094 144.2708 15.10832233573549
STRAND-1                
1 39090U 13009E   22117.47860216  .00000425  00000+0  16315-3 0  9990
2 39090  98.4084 316.9370 0010255  66.3719 293.8543 14.35274829480089
SOMP                    
1 39134U 13015E   22117.57100024  .00018906  00000+0  70591-3 0  9990
2 39134  64.8626 228.6976 0033463 289.1631  70.5878 15.26941529499464
BEESAT-3                
1 39135U 13015F   22117.84084636  .00018994  00000+0  80350-3 0  9992
2 39135  64.8656 262.7057 0035471 295.7261  64.0207 15.22708829498834
BEESAT-2                
1 39136U 13015G   22117.39785290  .00012905  00000+0  57252-3 0  9998
2 39136  64.8742 272.0005 0013111 289.8150  70.1565 15.21789617498148
ZACUBE-1 (TSHEPISOSAT)  
1 39417U 13066B   22118.20957285  .00002749  00000+0  34223-3 0  9990
2 39417  97.6323  91.9958 0057138 207.9265 151.8880 14.82137381455689
GOMX-1                  
1 39430U 13066Q   22118.22280322  .00001145  00000+0  21314-3 0  9994
2 39430  97.8116  28.2893 0148740 202.7729 156.6834 14.60048069448960
CUBEBUG-2 (LO-74)       
1 39440U 13066AA  22117.44009369  .00002381  00000+0  33007-3 0  9993
2 39440  97.7214  77.1615 0077530 297.6502  61.6854 14.76836383452754
FUNCUBE-1 (AO-73)       
1 39444U 13066AE  22118.19470214  .00003191  00000+0  38658-3 0  9998
2 39444  97.6206  94.3814 0056347 196.3034 163.6370 14.83170736454667
UWE-3                   
1 39446U 13066AG  22118.15849237  .00002650  00000+0  34908-3 0  9994
2 39446  97.6809  84.4162 0067251 252.9860 106.3976 14.79390369453617
SPROUT                  
1 39770U 14029E   22118.23734775  .00008049  00000+0  83434-3 0  9999
2 39770  97.9343 234.9074 0007597 250.2211 109.8212 14.90252653430189
UNISAT-6                
1 40012U 14033C   22118.11037248  .00001791  00000+0  26834-3 0  9991
2 40012  97.6634 308.7656 0056735 323.2837  36.4491 14.74757432422563
DUCHIFAT-1              
1 40021U 14033M   22117.39393151  .00004552  00000+0  44900-3 0  9990
2 40021  98.0080  66.6970 0011795 201.9502 158.1213 14.92466094427087
QB50P1                  
1 40025U 14033R   22117.76899977  .00004424  00000+0  46153-3 0  9992
2 40025  97.9576  54.7935 0011085 218.2117 141.8316 14.90228044426725
NUDT-PHONESAT           
1 40900U 15049B   22118.04409235  .00030665  00000+0  95471-3 0  9991
2 40900  97.4057 135.8451 0012664 106.3031 309.4605 15.33154682366883
ZDPS 2A                 
1 40901U 15049C   22118.19886784  .00013855  00000+0  59356-3 0  9990
2 40901  97.4613 127.2826 0013159 152.9752 274.5946 15.22812095365808
ZDPS 2B                 
1 40902U 15049D   22118.16531520  .00014155  00000+0  60375-3 0  9990
2 40902  97.4696 124.8525 0013080 150.3715 282.1170 15.22956144365777
XW-2A                   
1 40903U 15049E   22118.11990519  .00024216  00000+0  41411-3 0  9992
2 40903  97.1860 176.6447 0008680 309.7241 134.0690 15.51226869371450
KAITUO 1A               
1 40904U 15049F   22118.19253738  .00005059  00000+0  25553-3 0  9999
2 40904  97.4959 121.2054 0013844 177.5769 247.4967 15.17454135365244
2015-049G               
1 40905U 15049G   22118.15586780  .00004146  00000+0  21812-3 0  9992
2 40905  97.5144 118.3311 0014933 180.5679 238.1123 15.16116753364991
XW-2C                   
1 40906U 15049H   22118.19216529  .00006998  00000+0  34193-3 0  9991
2 40906  97.4943 122.0278 0014423 166.0799 261.9728 15.18468946365293
XW-2D                   
1 40907U 15049J   22118.16980506  .00007850  00000+0  37713-3 0  9991
2 40907  97.4934 121.9473 0013876 161.4458 267.8942 15.19026979365336
LILACSAT-2              
1 40908U 15049K   22118.17867079  .00004013  00000+0  21523-3 0  9992
2 40908  97.5169 119.2743 0015145 183.9634 243.3713 15.15448715364879
XW-2E                   
1 40909U 15049L   22118.06771359  .00012118  00000+0  52505-3 0  9995
2 40909  97.4672 126.2704 0013663 143.8016 253.6483 15.22453730365741
XW-2F                   
1 40910U 15049M   22118.11617726  .00011978  00000+0  52672-3 0  9998
2 40910  97.4748 125.4411 0014744 144.9890 288.3750 15.21936705365521
XW-2B                   
1 40911U 15049N   22118.19077870  .00007911  00000+0  38115-3 0  9995
2 40911  97.4919 122.5850 0013788 162.6115 263.7027 15.18923789365226
KAITUO 1B               
1 40912U 15049P   22118.15240190  .00014000  00000+0  56381-3 0  9991
2 40912  97.4406 129.8334 0015324 116.0371 308.9747 15.24867397366085
TIANWANG 1A (TW-1A)     
1 40928U 15051D   22118.05301608  .00043324  00000+0  63060-3 0  9995
2 40928  97.0455 141.2792 0008098 193.1460 222.0119 15.55589365370391
LAPAN-A2                
1 40931U 15052B   22117.52988069  .00001237  00000+0  83015-4 0  9993
2 40931   5.9971 172.3512 0012368 170.5943 189.4484 14.76782007355801
E-ST@R-II               
1 41459U 16025D   22118.02815559  .00017949  00000+0  78887-3 0  9996
2 41459  98.1821 279.5017 0149168  80.8802 280.9230 15.12408942329879
AAUSAT 4                
1 41460U 16025E   22118.19845046  .00024501  00000+0  97351-3 0  9999
2 41460  98.1769 285.4512 0130605  57.8041 303.5790 15.17687383330310
